[
    {
        "id": "4988",
        "title": "Le Jardin des Remparts",
        "postal_code": "21200"
    },
    {
        "id": "26112",
        "title": "Le 39V Paris - Frédéric Vardon",
        "postal_code": "75008"
    },
    {
        "id": "5603",
        "title": "JY'S",
        "postal_code": "68000"
    },
    {
        "id": "21741",
        "title": "Restaurant du Palais Royal",
        "postal_code": "75001"
    },
    {
        "id": "5355",
        "title": "Auberge du Pont de Collonges - Paul Bocuse",
        "postal_code": "69660"
    },
    {
        "id": "38822",
        "title": "Paloma",
        "postal_code": "06250"
    },
    {
        "id": "4977",
        "title": "Le Saint-James - Nicolas Magie",
        "postal_code": "33270"
    },
    {
        "id": "205737",
        "title": "Le Violon d'Ingres - Christian Constant",
        "postal_code": "75007"
    },
    {
        "id": "75533",
        "title": "La Tour des Vents",
        "postal_code": "24240"
    },
    {
        "id": "7133",
        "title": "Le Moulin du Roc",
        "postal_code": "24530"
    },
    {
        "id": "566",
        "title": "L'Almandin",
        "postal_code": "66750"
    },
    {
        "id": "3303",
        "title": "Le Relais Bernard Loiseau",
        "postal_code": "21210"
    },
    {
        "id": "25901",
        "title": "Hostellerie de l'Abbaye de la Celle",
        "postal_code": "83170"
    },
    {
        "id": "28453",
        "title": "Le 1217",
        "postal_code": "69620"
    },
    {
        "id": "3806",
        "title": "L'Assiette Champenoise",
        "postal_code": "51430"
    },
    {
        "id": "2828",
        "title": "Le Chiberta - Stéphane Laruelle - Guy Savoy",
        "postal_code": "75008"
    },
    {
        "id": "9350",
        "title": "Le Petit Nice Passedat - Gérald Passedat",
        "postal_code": "13007"
    },
    {
        "id": "26494",
        "title": "Restaurant La Barbacane",
        "postal_code": "11000"
    },
    {
        "id": "294745",
        "title": "Le Fanal - Pascal Borrell",
        "postal_code": "66650"
    },
    {
        "id": "69375",
        "title": "Au Trou Gascon - Alain Dutournier",
        "postal_code": "75012"
    },
    {
        "id": "310829",
        "title": "Dominique Bouchet",
        "postal_code": "75008"
    },
    {
        "id": "3157",
        "title": "Restaurant Gill \"Relais & Châteaux\"",
        "postal_code": "76000"
    },
    {
        "id": "5109",
        "title": "Le Magasin aux Vivres",
        "postal_code": "57000"
    },
    {
        "id": "205419",
        "title": "La Dame de Pic - Anne-Sophie PIC - Paris",
        "postal_code": "75001"
    },
    {
        "id": "18188",
        "title": "Le Pressoir",
        "postal_code": "56890"
    },
    {
        "id": "57531",
        "title": "La Bastide de Moustiers",
        "postal_code": "04360"
    },
    {
        "id": "8601",
        "title": "Il Carpaccio - Hôtel Royal Monceau",
        "postal_code": "75008"
    },
    {
        "id": "3018",
        "title": "Domaine d'Auriac",
        "postal_code": "11000"
    },
    {
        "id": "16314",
        "title": "Les Fresques - Château des Vigiers",
        "postal_code": "24240"
    },
    {
        "id": "78533",
        "title": "Le Quincangrogne",
        "postal_code": "77400"
    },
    {
        "id": "2934",
        "title": "Auberge du Bon Laboureur",
        "postal_code": "37150"
    },
    {
        "id": "6448",
        "title": "Les Bacchanales - Christophe Dufau",
        "postal_code": "06140"
    },
    {
        "id": "2714",
        "title": "Auberge des Templiers",
        "postal_code": "45290"
    },
    {
        "id": "2876",
        "title": "Le Relais de la Poste",
        "postal_code": "67610"
    },
    {
        "id": "74933",
        "title": "Le Clarence",
        "postal_code": "75008"
    },
    {
        "id": "26460",
        "title": "Ivan Vautier",
        "postal_code": "14000"
    },
    {
        "id": "21632",
        "title": "L'Essentiel",
        "postal_code": "14800"
    },
    {
        "id": "324443",
        "title": "Maison Clovis",
        "postal_code": "69006"
    },
    {
        "id": "73740",
        "title": "La Rotonde - Domaine le Lyon Vert",
        "postal_code": "69890"
    },
    {
        "id": "378",
        "title": "Ithurria",
        "postal_code": "64250"
    },
    {
        "id": "26352",
        "title": "Le Moulin de l'Abbaye",
        "postal_code": "24310"
    },
    {
        "id": "26201",
        "title": "Restaurant Auguste - Gaël Orieux",
        "postal_code": "75007"
    },
    {
        "id": "5305",
        "title": "L'Auberge Basque",
        "postal_code": "64310"
    },
    {
        "id": "7872",
        "title": "Le Pavillon des Boulevards - Denis Franc",
        "postal_code": "33000"
    },
    {
        "id": "3931",
        "title": "Restaurant William Frachot",
        "postal_code": "21000"
    },
    {
        "id": "277471",
        "title": "Alain Llorca",
        "postal_code": "06480"
    },
    {
        "id": "25",
        "title": "Loiseau rive Gauche",
        "postal_code": "75007"
    },
    {
        "id": "3304",
        "title": "Loiseau des Vignes",
        "postal_code": "21200"
    },
    {
        "id": "12900",
        "title": "Pierre Orsi",
        "postal_code": "69006"
    },
    {
        "id": "27058",
        "title": "Initial",
        "postal_code": "14000"
    },
    {
        "id": "32584",
        "title": "L'Auberge de la Pomme",
        "postal_code": "27340"
    },
    {
        "id": "206163",
        "title": "Julien Binz",
        "postal_code": "68770"
    },
    {
        "id": "5632",
        "title": "La Licorne Royale",
        "postal_code": "27480"
    },
    {
        "id": "22878",
        "title": "Domaine de Clairefontaine",
        "postal_code": "38121"
    },
    {
        "id": "324473",
        "title": "Le Faventia",
        "postal_code": "83440"
    },
    {
        "id": "9228",
        "title": "Le Baudelaire - Hôtel Le Burgundy Paris",
        "postal_code": "75001"
    },
    {
        "id": "7130",
        "title": "Le Clos des Sens",
        "postal_code": "74940"
    },
    {
        "id": "301377",
        "title": "Le Chantecler - Hôtel Negresco",
        "postal_code": "06000"
    },
    {
        "id": "25896",
        "title": "Benoit - Alain Ducasse",
        "postal_code": "75004"
    },
    {
        "id": "15068",
        "title": "Au Vieux Couvent - Alexis Albrecht",
        "postal_code": "67860"
    },
    {
        "id": "10332",
        "title": "Le Refuge des Gourmets",
        "postal_code": "74140"
    },
    {
        "id": "682",
        "title": "L'Oasis - Stéphane Raimbault",
        "postal_code": "06210"
    },
    {
        "id": "5623",
        "title": "Le Corot - Hôtel Les Étangs de Corot",
        "postal_code": "92410"
    },
    {
        "id": "132",
        "title": "Le Relais des Moines",
        "postal_code": "83460"
    },
    {
        "id": "26469",
        "title": "Restaurant Cyril Attrazic - Chez Camillou",
        "postal_code": "48130"
    },
    {
        "id": "62590",
        "title": "Le Pont de l'Ouysse",
        "postal_code": "46200"
    },
    {
        "id": "2819",
        "title": "Les Hautes Roches",
        "postal_code": "37210"
    },
    {
        "id": "51875",
        "title": "L'Auberge Tiegezh",
        "postal_code": "56380"
    },
    {
        "id": "5935",
        "title": "Le Grand Cerf",
        "postal_code": "51500"
    },
    {
        "id": "122",
        "title": "La Grande Cascade - Frédéric Robert",
        "postal_code": "75016"
    },
    {
        "id": "8685",
        "title": "La Villa Archange",
        "postal_code": "06110"
    },
    {
        "id": "9759",
        "title": "Le Carrousel",
        "postal_code": "63350"
    },
    {
        "id": "2788",
        "title": "La Villa Madie - Dimitri Droisneau",
        "postal_code": "13260"
    },
    {
        "id": "60777",
        "title": "1912",
        "postal_code": "14360"
    },
    {
        "id": "5649",
        "title": "La Grand'Vigne - Hôtel Les Sources de Caudalie",
        "postal_code": "33650"
    },
    {
        "id": "2971",
        "title": "Maison Kieny",
        "postal_code": "68400"
    },
    {
        "id": "23454",
        "title": "Helen",
        "postal_code": "75008"
    },
    {
        "id": "2591",
        "title": "La Table des Merville - Thierry Merville",
        "postal_code": "31320"
    },
    {
        "id": "212971",
        "title": "L'Odas",
        "postal_code": "76000"
    },
    {
        "id": "2310",
        "title": "Auberge du Cheval Blanc",
        "postal_code": "67510"
    },
    {
        "id": "53038",
        "title": "Le Gabriel - La Réserve Paris",
        "postal_code": "75008"
    },
    {
        "id": "9611",
        "title": "Le Radio",
        "postal_code": "63400"
    },
    {
        "id": "204609",
        "title": "Le Castellaras",
        "postal_code": "83440"
    },
    {
        "id": "214579",
        "title": "L'Arcane",
        "postal_code": "75018"
    },
    {
        "id": "203143",
        "title": "Le Marché du Lucas Carton",
        "postal_code": "75008"
    },
    {
        "id": "23255",
        "title": "Auberge de la Tour",
        "postal_code": "15220"
    },
    {
        "id": "250",
        "title": "Lasserre",
        "postal_code": "75008"
    },
    {
        "id": "3485",
        "title": "Manoir de la Boulaie - Laurent Saudeau",
        "postal_code": "44115"
    },
    {
        "id": "8977",
        "title": "Shang Palace - Shangri-La Hotel, Paris",
        "postal_code": "75016"
    },
    {
        "id": "29826",
        "title": "Loiseau des Ducs",
        "postal_code": "21000"
    },
    {
        "id": "405",
        "title": "Maison Rostang",
        "postal_code": "75017"
    },
    {
        "id": "38155",
        "title": "Flaveur",
        "postal_code": "06000"
    },
    {
        "id": "6710",
        "title": "Les Rosiers",
        "postal_code": "64200"
    },
    {
        "id": "66992",
        "title": "Le Stelsia - Le Jasmin",
        "postal_code": "47140"
    },
    {
        "id": "5727",
        "title": "Mavrommatis",
        "postal_code": "75005"
    },
    {
        "id": "6986",
        "title": "Alexandre - Michel Kayser",
        "postal_code": "30128"
    },
    {
        "id": "351691",
        "title": "Restaurant Origine",
        "postal_code": "76000"
    },
    {
        "id": "287357",
        "title": "La Palme d'Or",
        "postal_code": "06400"
    },
    {
        "id": "6765",
        "title": "L'Auberge de la Diligence",
        "postal_code": "49440"
    },
    {
        "id": "3521",
        "title": "Le Candille - Le Mas Candille",
        "postal_code": "06250"
    },
    {
        "id": "8976",
        "title": "L'Abeille - Shangri-La Hotel, Paris",
        "postal_code": "75016"
    },
    {
        "id": "209193",
        "title": "Ed.Em",
        "postal_code": "21190"
    },
    {
        "id": "2185",
        "title": "Antoine - Thibault Sombardier",
        "postal_code": "75116"
    },
    {
        "id": "31008",
        "title": "Alcyone",
        "postal_code": "13002"
    },
    {
        "id": "4697",
        "title": "Les Terrasses de Lyon",
        "postal_code": "69005"
    },
    {
        "id": "38024",
        "title": "La Nouvelle Auberge",
        "postal_code": "68230"
    },
    {
        "id": "4904",
        "title": "Hostellerie de Plaisance",
        "postal_code": "33330"
    },
    {
        "id": "10382",
        "title": "Le Strasbourg",
        "postal_code": "57230"
    },
    {
        "id": "77626",
        "title": "Alliance",
        "postal_code": "75005"
    },
    {
        "id": "200546",
        "title": "Sylvestre - Hôtel Thoumieux",
        "postal_code": "75007"
    },
    {
        "id": "3552",
        "title": "Maison Lameloise",
        "postal_code": "71150"
    },
    {
        "id": "4961",
        "title": "Ar Men Du",
        "postal_code": "29920"
    },
    {
        "id": "275457",
        "title": "Emporio Armani Ristorante",
        "postal_code": "75006"
    },
    {
        "id": "68308",
        "title": "Restaurant Thierry Drapeau",
        "postal_code": "85260"
    },
    {
        "id": "2755",
        "title": "Auberge de Clochemerle - Romain Barthe",
        "postal_code": "69460"
    },
    {
        "id": "60859",
        "title": "Nakatani",
        "postal_code": "75007"
    },
    {
        "id": "2740",
        "title": "Le Manoir du Lys",
        "postal_code": "61140"
    },
    {
        "id": "44361",
        "title": "Auberge au Boeuf",
        "postal_code": "67770"
    },
    {
        "id": "1310",
        "title": "Le Phebus - Xavier Mathieu",
        "postal_code": "84220"
    },
    {
        "id": "387",
        "title": "Le Mascaret",
        "postal_code": "50560"
    },
    {
        "id": "201032",
        "title": "Le 1920",
        "postal_code": "74120"
    },
    {
        "id": "8933",
        "title": "Les Clefs d'Argent",
        "postal_code": "40000"
    },
    {
        "id": "3131",
        "title": "Gordon Ramsay au Trianon",
        "postal_code": "78000"
    },
    {
        "id": "284489",
        "title": "L'Archeste",
        "postal_code": "75116"
    },
    {
        "id": "19211",
        "title": "Le 1741",
        "postal_code": "67000"
    },
    {
        "id": "27598",
        "title": "Hôtel Restaurant Les Bories",
        "postal_code": "84220"
    },
    {
        "id": "2970",
        "title": "La Renaissance",
        "postal_code": "61200"
    },
    {
        "id": "32118",
        "title": "Le Musigny",
        "postal_code": "59300"
    },
    {
        "id": "26660",
        "title": "La Vague d'Or",
        "postal_code": "83990"
    },
    {
        "id": "18271",
        "title": "Le Clair de la Plume",
        "postal_code": "26230"
    },
    {
        "id": "35192",
        "title": "Hôtel Restaurant La Matelote",
        "postal_code": "62200"
    },
    {
        "id": "221",
        "title": "Le France",
        "postal_code": "25130"
    },
    {
        "id": "77613",
        "title": "Le Meurin",
        "postal_code": "62350"
    },
    {
        "id": "15418",
        "title": "Les Loges - Anthony Bonnet",
        "postal_code": "69005"
    },
    {
        "id": "23303",
        "title": "La Table de Nans - Auberge le Revestel",
        "postal_code": "13600"
    },
    {
        "id": "2975",
        "title": "La Table du Gourmet",
        "postal_code": "68340"
    },
    {
        "id": "291883",
        "title": "La Table de l'Alpaga",
        "postal_code": "74120"
    },
    {
        "id": "2579",
        "title": "L'Auberge de la Charme",
        "postal_code": "21370"
    },
    {
        "id": "71542",
        "title": "Au Crocodile",
        "postal_code": "67000"
    },
    {
        "id": "30379",
        "title": "Jin",
        "postal_code": "75001"
    },
    {
        "id": "18939",
        "title": "Le Bistro des Saveurs",
        "postal_code": "67210"
    },
    {
        "id": "4294",
        "title": "La Maison dans le Parc",
        "postal_code": "54000"
    },
    {
        "id": "25985",
        "title": "Copenhague",
        "postal_code": "75008"
    },
    {
        "id": "6018",
        "title": "Le Vieux Logis",
        "postal_code": "24510"
    },
    {
        "id": "33786",
        "title": "Le 1947 - Cheval Blanc Courchevel",
        "postal_code": "73120"
    },
    {
        "id": "26327",
        "title": "Elsa - Hôtel Monte-Carlo Beach",
        "postal_code": "06190"
    },
    {
        "id": "2998",
        "title": "Christopher Coutanceau",
        "postal_code": "17000"
    },
    {
        "id": "7135",
        "title": "Les Trois Rochers - La Villa Tri Men",
        "postal_code": "29120"
    },
    {
        "id": "14529",
        "title": "La Chassagnette",
        "postal_code": "13200"
    },
    {
        "id": "323145",
        "title": "Le Passe Temps",
        "postal_code": "69006"
    },
    {
        "id": "58408",
        "title": "La Table du 11",
        "postal_code": "78000"
    },
    {
        "id": "75043",
        "title": "Prairial",
        "postal_code": "69001"
    },
    {
        "id": "1086",
        "title": "Le Vivier",
        "postal_code": "84800"
    },
    {
        "id": "3592",
        "title": "Buerehiesel - Eric Westermann",
        "postal_code": "67000"
    },
    {
        "id": "344379",
        "title": "Astrance",
        "postal_code": "75016"
    },
    {
        "id": "30315",
        "title": "Les Climats",
        "postal_code": "75007"
    },
    {
        "id": "73961",
        "title": "Le George - Four Seasons Hôtel George V",
        "postal_code": "75008"
    },
    {
        "id": "269053",
        "title": "Ze Kitchen Galerie",
        "postal_code": "75006"
    },
    {
        "id": "42187",
        "title": "La Promenade",
        "postal_code": "31590"
    },
    {
        "id": "3507",
        "title": "Hostellerie de Levernois : Le Gastronomique",
        "postal_code": "21200"
    },
    {
        "id": "46885",
        "title": "Le Gambetta",
        "postal_code": "49400"
    },
    {
        "id": "10889",
        "title": "Septime",
        "postal_code": "75011"
    },
    {
        "id": "31795",
        "title": "L'Auberge du Vert Mont",
        "postal_code": "59299"
    },
    {
        "id": "330375",
        "title": "Le Village",
        "postal_code": "78160"
    },
    {
        "id": "44919",
        "title": "Miraflores",
        "postal_code": "69006"
    },
    {
        "id": "8628",
        "title": "Le Park 45",
        "postal_code": "06400"
    },
    {
        "id": "2889",
        "title": "La Marande",
        "postal_code": "71260"
    },
    {
        "id": "6482",
        "title": "Le Vieux Pont",
        "postal_code": "12390"
    },
    {
        "id": "12601",
        "title": "Hôtel Restaurant Le Cerf - Michel HUSSER",
        "postal_code": "67520"
    },
    {
        "id": "7876",
        "title": "Mon Plaisir",
        "postal_code": "25190"
    },
    {
        "id": "5020",
        "title": "La Fourchette du Printemps - Nicolas Mouton",
        "postal_code": "75017"
    },
    {
        "id": "5756",
        "title": "Palm Beach",
        "postal_code": "20000"
    },
    {
        "id": "60418",
        "title": "Apicius",
        "postal_code": "75008"
    },
    {
        "id": "8838",
        "title": "Henri et Joseph",
        "postal_code": "56100"
    },
    {
        "id": "8760",
        "title": "Saturne",
        "postal_code": "75002"
    },
    {
        "id": "310489",
        "title": "Le Saint-Laurent",
        "postal_code": "75008"
    },
    {
        "id": "6655",
        "title": "Bistrot Gourmand Clovis",
        "postal_code": "06140"
    },
    {
        "id": "38154",
        "title": "L'Aromate",
        "postal_code": "06000"
    },
    {
        "id": "25701",
        "title": "Garance",
        "postal_code": "75007"
    },
    {
        "id": "276775",
        "title": "Garopapilles",
        "postal_code": "33000"
    },
    {
        "id": "306505",
        "title": "Le Pavillon",
        "postal_code": "62520"
    },
    {
        "id": "317587",
        "title": "Pertinence",
        "postal_code": "75007"
    },
    {
        "id": "202436",
        "title": "Le Chateaubriand",
        "postal_code": "75011"
    },
    {
        "id": "276169",
        "title": "Ken Kawasaki",
        "postal_code": "75018"
    },
    {
        "id": "209577",
        "title": "Restaurant H",
        "postal_code": "75004"
    },
    {
        "id": "272053",
        "title": "Divellec",
        "postal_code": "75007"
    },
    {
        "id": "337449",
        "title": "Comice",
        "postal_code": "75016"
    }
]